STARLINK-5826           
1 55782U 23028AT  26068.76930971 -.00000996  00000+0 -75635-4 0  9991
2 55782  69.9986 204.4326 0004001 275.9334  84.1369 14.98361608167039
SHIYAN-24C 03           
1 58652U 23206C   26068.89147317  .00001350  00000+0  11928-3 0  9993
2 58652  97.3969  41.7507 0002411  66.6237 293.5240 14.97896938120432
